STARLINK-36623          
1 67644U 26020AD  26080.58334491 -.02234032  00000+0 -81250-1 0  9994
2 67644  43.0018  72.4146 0000608 297.6879 103.8569 15.31205105  5966
STARLINK-36619          
1 67645U 26020AE  26080.58334491 -.03257536  00000+0 -11902+0 0  9995
2 67645  43.0009  72.3862 0001629 293.7220 118.4115 15.31253217  6015
STARLINK-36719          
1 67648U 26022A   26080.58334491  .00047501  00000+0  14660-2 0  9991
2 67648  97.2840 114.6890 0001296  86.0327 189.5412 15.33410577  5894
STARLINK-36342          
1 67649U 26022B   26080.60515986  .00102284  00000+0  67841-3 0  9995
2 67649  97.2847 115.1539 0001099  74.4138 285.7249 15.75191232  7428
STARLINK-36703          
1 67650U 26022C   26080.58334491 -.00554468  00000+0 -17774-1 0  9999
2 67650  97.2850 114.7309 0001792  96.8933 276.6028 15.34643967  5890
STARLINK-36696          
1 67651U 26022D   26080.58334491  .00051150  00000+0  15776-2 0  9999
2 67651  97.2842 114.7256 0001435  92.3371 273.2089 15.33413517  5833
STARLINK-36699          
1 67652U 26022E   26080.58334491  .00048356  00000+0  14924-2 0  9998
2 67652  97.2842 114.8030 0001375  85.9250  99.6329 15.33406691  5788
STARLINK-36694          
1 67653U 26022F   26080.58334491  .00052076  00000+0  16054-2 0  9999
2 67653  97.2848 114.7081 0001139  76.5038 244.0395 15.33423030  5941
STARLINK-36620          
1 67654U 26022G   26080.58334491 -.02208355  00000+0 -68528-1 0  9999
2 67654  97.2841 114.7228 0001257  68.7129 280.1069 15.36808881  5733
STARLINK-36720          
1 67655U 26022H   26080.58334491  .00043641  00000+0  13130-2 0  9991
2 67655  97.2844 114.7811 0002032 125.3468   8.0232 15.34240402  5739
STARLINK-36688          
1 67656U 26022J   26080.58334491 -.01811108  00000+0 -53120-1 0  9998
2 67656  97.2840 114.8230 0002044  83.8636 135.5913 15.38412151  5783
STARLINK-36706          
1 67657U 26022K   26080.58334491 -.01822171  00000+0 -54299-1 0  9999
2 67657  97.2845 114.7209 0001521 102.7830 238.9751 15.37951832  5949
STARLINK-36701          
1 67658U 26022L   26080.58334491 -.01944648  00000+0 -56922-1 0  9999
2 67658  97.2862 114.7078 0001569  88.2790 234.8111 15.38721761  5940
STARLINK-36642          
1 67659U 26022M   26080.58334491 -.01839196  00000+0 -45252-1 0  9995
2 67659  97.2845 114.7398 0001177 104.1024 287.4274 15.43742868  5996
STARLINK-36673          
1 67660U 26022N   26077.98642419  .00044365  00000+0  81194-3 0  9999
2 67660  97.2813 112.1297 0002509 103.3882 256.7649 15.49217495  6991
STARLINK-36674          
1 67661U 26022P   26080.58334491  .00045661  00000+0  13718-2 0  9994
2 67661  97.2845 114.7925 0001584  74.8242  85.8687 15.34275171  5998
