[{"OBJECT_NAME":"STARLINK-36623","OBJECT_ID":"2026-020AD","EPOCH":"2026-03-21T14:00:01.000224","MEAN_MOTION":15.31205105,"ECCENTRICITY":6.083e-5,"INCLINATION":43.0018,"RA_OF_ASC_NODE":72.4146,"ARG_OF_PERICENTER":297.6879,"MEAN_ANOMALY":103.8569,"EPHEMERIS_TYPE":0,"CLASSIFICATION_TYPE":"U","NORAD_CAT_ID":67644,"ELEMENT_SET_NO":999,"REV_AT_EPOCH":596,"BSTAR":-0.081250257,"MEAN_MOTION_DOT":-0.02234032,"MEAN_MOTION_DDOT":0},{"OBJECT_NAME":"STARLINK-36619","OBJECT_ID":"2026-020AE","EPOCH":"2026-03-21T14:00:01.000224","MEAN_MOTION":15.31253217,"ECCENTRICITY":0.00016298,"INCLINATION":43.0009,"RA_OF_ASC_NODE":72.3862,"ARG_OF_PERICENTER":293.722,"MEAN_ANOMALY":118.4115,"EPHEMERIS_TYPE":0,"CLASSIFICATION_TYPE":"U","NORAD_CAT_ID":67645,"ELEMENT_SET_NO":999,"REV_AT_EPOCH":601,"BSTAR":-0.11901848,"MEAN_MOTION_DOT":-0.03257536,"MEAN_MOTION_DDOT":0},{"OBJECT_NAME":"STARLINK-36719","OBJECT_ID":"2026-022A","EPOCH":"2026-03-21T14:00:01.000224","MEAN_MOTION":15.33410577,"ECCENTRICITY":0.00012968,"INCLINATION":97.284,"RA_OF_ASC_NODE":114.689,"ARG_OF_PERICENTER":86.0327,"MEAN_ANOMALY":189.5412,"EPHEMERIS_TYPE":0,"CLASSIFICATION_TYPE":"U","NORAD_CAT_ID":67648,"ELEMENT_SET_NO":999,"REV_AT_EPOCH":589,"BSTAR":0.0014660444,"MEAN_MOTION_DOT":0.00047501,"MEAN_MOTION_DDOT":0},{"OBJECT_NAME":"STARLINK-36342","OBJECT_ID":"2026-022B","EPOCH":"2026-03-21T14:31:25.811904","MEAN_MOTION":15.75191232,"ECCENTRICITY":0.00010997,"INCLINATION":97.2847,"RA_OF_ASC_NODE":115.1539,"ARG_OF_PERICENTER":74.4138,"MEAN_ANOMALY":285.7249,"EPHEMERIS_TYPE":0,"CLASSIFICATION_TYPE":"U","NORAD_CAT_ID":67649,"ELEMENT_SET_NO":999,"REV_AT_EPOCH":742,"BSTAR":0.00067841297,"MEAN_MOTION_DOT":0.00102284,"MEAN_MOTION_DDOT":0},{"OBJECT_NAME":"STARLINK-36703","OBJECT_ID":"2026-022C","EPOCH":"2026-03-21T14:00:01.000224","MEAN_MOTION":15.34643967,"ECCENTRICITY":0.00017927,"INCLINATION":97.285,"RA_OF_ASC_NODE":114.7309,"ARG_OF_PERICENTER":96.8933,"MEAN_ANOMALY":276.6028,"EPHEMERIS_TYPE":0,"CLASSIFICATION_TYPE":"U","NORAD_CAT_ID":67650,"ELEMENT_SET_NO":999,"REV_AT_EPOCH":589,"BSTAR":-0.017773726,"MEAN_MOTION_DOT":-0.00554468,"MEAN_MOTION_DDOT":0},{"OBJECT_NAME":"STARLINK-36696","OBJECT_ID":"2026-022D","EPOCH":"2026-03-21T14:00:01.000224","MEAN_MOTION":15.33413517,"ECCENTRICITY":0.00014356,"INCLINATION":97.2842,"RA_OF_ASC_NODE":114.7256,"ARG_OF_PERICENTER":92.3371,"MEAN_ANOMALY":273.2089,"EPHEMERIS_TYPE":0,"CLASSIFICATION_TYPE":"U","NORAD_CAT_ID":67651,"ELEMENT_SET_NO":999,"REV_AT_EPOCH":583,"BSTAR":0.0015775522,"MEAN_MOTION_DOT":0.0005115,"MEAN_MOTION_DDOT":0},{"OBJECT_NAME":"STARLINK-36699","OBJECT_ID":"2026-022E","EPOCH":"2026-03-21T14:00:01.000224","MEAN_MOTION":15.33406691,"ECCENTRICITY":0.00013758,"INCLINATION":97.2842,"RA_OF_ASC_NODE":114.803,"ARG_OF_PERICENTER":85.925,"MEAN_ANOMALY":99.6329,"EPHEMERIS_TYPE":0,"CLASSIFICATION_TYPE":"U","NORAD_CAT_ID":67652,"ELEMENT_SET_NO":999,"REV_AT_EPOCH":578,"BSTAR":0.0014923842,"MEAN_MOTION_DOT":0.00048356,"MEAN_MOTION_DDOT":0},{"OBJECT_NAME":"STARLINK-36694","OBJECT_ID":"2026-022F","EPOCH":"2026-03-21T14:00:01.000224","MEAN_MOTION":15.3342303,"ECCENTRICITY":0.00011395,"INCLINATION":97.2848,"RA_OF_ASC_NODE":114.7081,"ARG_OF_PERICENTER":76.5038,"MEAN_ANOMALY":244.0395,"EPHEMERIS_TYPE":0,"CLASSIFICATION_TYPE":"U","NORAD_CAT_ID":67653,"ELEMENT_SET_NO":999,"REV_AT_EPOCH":594,"BSTAR":0.0016054111,"MEAN_MOTION_DOT":0.00052076,"MEAN_MOTION_DDOT":0},{"OBJECT_NAME":"STARLINK-36620","OBJECT_ID":"2026-022G","EPOCH":"2026-03-21T14:00:01.000224","MEAN_MOTION":15.36808881,"ECCENTRICITY":0.00012573,"INCLINATION":97.2841,"RA_OF_ASC_NODE":114.7228,"ARG_OF_PERICENTER":68.7129,"MEAN_ANOMALY":280.1069,"EPHEMERIS_TYPE":0,"CLASSIFICATION_TYPE":"U","NORAD_CAT_ID":67654,"ELEMENT_SET_NO":999,"REV_AT_EPOCH":573,"BSTAR":-0.068527628,"MEAN_MOTION_DOT":-0.02208355,"MEAN_MOTION_DDOT":0},{"OBJECT_NAME":"STARLINK-36720","OBJECT_ID":"2026-022H","EPOCH":"2026-03-21T14:00:01.000224","MEAN_MOTION":15.34240402,"ECCENTRICITY":0.00020323,"INCLINATION":97.2844,"RA_OF_ASC_NODE":114.7811,"ARG_OF_PERICENTER":125.3468,"MEAN_ANOMALY":8.0232,"EPHEMERIS_TYPE":0,"CLASSIFICATION_TYPE":"U","NORAD_CAT_ID":67655,"ELEMENT_SET_NO":999,"REV_AT_EPOCH":573,"BSTAR":0.0013129872,"MEAN_MOTION_DOT":0.00043641,"MEAN_MOTION_DDOT":0},{"OBJECT_NAME":"STARLINK-36688","OBJECT_ID":"2026-022J","EPOCH":"2026-03-21T14:00:01.000224","MEAN_MOTION":15.38412151,"ECCENTRICITY":0.00020448,"INCLINATION":97.284,"RA_OF_ASC_NODE":114.823,"ARG_OF_PERICENTER":83.8636,"MEAN_ANOMALY":135.5913,"EPHEMERIS_TYPE":0,"CLASSIFICATION_TYPE":"U","NORAD_CAT_ID":67656,"ELEMENT_SET_NO":999,"REV_AT_EPOCH":578,"BSTAR":-0.05312045,"MEAN_MOTION_DOT":-0.01811108,"MEAN_MOTION_DDOT":0},{"OBJECT_NAME":"STARLINK-36706","OBJECT_ID":"2026-022K","EPOCH":"2026-03-21T14:00:01.000224","MEAN_MOTION":15.37951832,"ECCENTRICITY":0.00015214,"INCLINATION":97.2845,"RA_OF_ASC_NODE":114.7209,"ARG_OF_PERICENTER":102.783,"MEAN_ANOMALY":238.9751,"EPHEMERIS_TYPE":0,"CLASSIFICATION_TYPE":"U","NORAD_CAT_ID":67657,"ELEMENT_SET_NO":999,"REV_AT_EPOCH":594,"BSTAR":-0.054298595,"MEAN_MOTION_DOT":-0.01822171,"MEAN_MOTION_DDOT":0},{"OBJECT_NAME":"STARLINK-36701","OBJECT_ID":"2026-022L","EPOCH":"2026-03-21T14:00:01.000224","MEAN_MOTION":15.38721761,"ECCENTRICITY":0.00015697,"INCLINATION":97.2862,"RA_OF_ASC_NODE":114.7078,"ARG_OF_PERICENTER":88.279,"MEAN_ANOMALY":234.8111,"EPHEMERIS_TYPE":0,"CLASSIFICATION_TYPE":"U","NORAD_CAT_ID":67658,"ELEMENT_SET_NO":999,"REV_AT_EPOCH":594,"BSTAR":-0.05692206,"MEAN_MOTION_DOT":-0.01944648,"MEAN_MOTION_DDOT":0},{"OBJECT_NAME":"STARLINK-36642","OBJECT_ID":"2026-022M","EPOCH":"2026-03-21T14:00:01.000224","MEAN_MOTION":15.43742868,"ECCENTRICITY":0.00011772,"INCLINATION":97.2845,"RA_OF_ASC_NODE":114.7398,"ARG_OF_PERICENTER":104.1024,"MEAN_ANOMALY":287.4274,"EPHEMERIS_TYPE":0,"CLASSIFICATION_TYPE":"U","NORAD_CAT_ID":67659,"ELEMENT_SET_NO":999,"REV_AT_EPOCH":599,"BSTAR":-0.045251939,"MEAN_MOTION_DOT":-0.01839196,"MEAN_MOTION_DDOT":0},{"OBJECT_NAME":"STARLINK-36673","OBJECT_ID":"2026-022N","EPOCH":"2026-03-18T23:40:27.050016","MEAN_MOTION":15.49217495,"ECCENTRICITY":0.00025094,"INCLINATION":97.2813,"RA_OF_ASC_NODE":112.1297,"ARG_OF_PERICENTER":103.3882,"MEAN_ANOMALY":256.7649,"EPHEMERIS_TYPE":0,"CLASSIFICATION_TYPE":"U","NORAD_CAT_ID":67660,"ELEMENT_SET_NO":999,"REV_AT_EPOCH":699,"BSTAR":0.0008119364,"MEAN_MOTION_DOT":0.00044365,"MEAN_MOTION_DDOT":0},{"OBJECT_NAME":"STARLINK-36674","OBJECT_ID":"2026-022P","EPOCH":"2026-03-21T14:00:01.000224","MEAN_MOTION":15.34275171,"ECCENTRICITY":0.00015842,"INCLINATION":97.2845,"RA_OF_ASC_NODE":114.7925,"ARG_OF_PERICENTER":74.8242,"MEAN_ANOMALY":85.8687,"EPHEMERIS_TYPE":0,"CLASSIFICATION_TYPE":"U","NORAD_CAT_ID":67661,"ELEMENT_SET_NO":999,"REV_AT_EPOCH":599,"BSTAR":0.001371811,"MEAN_MOTION_DOT":0.00045661,"MEAN_MOTION_DDOT":0}]
